<?xml version="1.0" encoding="UTF-8"?>
<gpx version="1.1" creator="pull-strava.mjs"
  xmlns="http://www.topografix.com/GPX/1/1"
  xmlns:gpxtpx="http://www.garmin.com/xmlschemas/TrackPointExtension/v1">
  <metadata><name>Morning Run</name><time>2026-05-22T23:23:45.000Z</time></metadata>
  <trk><name>Morning Run</name><type>running</type>
    <trkseg>
      <trkpt lat="35.687312" lon="139.761397"><ele>9.2</ele><time>2026-05-22T23:23:45.000Z</time></trkpt>
      <trkpt lat="35.687358" lon="139.761396"><ele>8.4</ele><time>2026-05-22T23:23:47.000Z</time></trkpt>
      <trkpt lat="35.687375" lon="139.761394"><ele>8</ele><time>2026-05-22T23:23:48.000Z</time></trkpt>
      <trkpt lat="35.687392" lon="139.761392"><ele>7.6</ele><time>2026-05-22T23:23:49.000Z</time></trkpt>
      <trkpt lat="35.687435" lon="139.761381"><ele>7.2</ele><time>2026-05-22T23:23:50.000Z</time></trkpt>
      <trkpt lat="35.687453" lon="139.761377"><ele>7</ele><time>2026-05-22T23:23:51.000Z</time></trkpt>
      <trkpt lat="35.68747" lon="139.761372"><ele>6.8</ele><time>2026-05-22T23:23:52.000Z</time></trkpt>
      <trkpt lat="35.687512" lon="139.76136"><ele>6.6</ele><time>2026-05-22T23:23:53.000Z</time></trkpt>
      <trkpt lat="35.687526" lon="139.761355"><ele>6.6</ele><time>2026-05-22T23:23:54.000Z</time></trkpt>
      <trkpt lat="35.687568" lon="139.761338"><ele>6.6</ele><time>2026-05-22T23:23:55.000Z</time></trkpt>
      <trkpt lat="35.687584" lon="139.761332"><ele>6.6</ele><time>2026-05-22T23:23:56.000Z</time></trkpt>
      <trkpt lat="35.687601" lon="139.761325"><ele>6.6</ele><time>2026-05-22T23:23:57.000Z</time></trkpt>
      <trkpt lat="35.687643" lon="139.761309"><ele>6.6</ele><time>2026-05-22T23:23:58.000Z</time></trkpt>
      <trkpt lat="35.687656" lon="139.761304"><ele>6.6</ele><time>2026-05-22T23:23:59.000Z</time></trkpt>
      <trkpt lat="35.687702" lon="139.761286"><ele>6.6</ele><time>2026-05-22T23:24:00.000Z</time></trkpt>
      <trkpt lat="35.687721" lon="139.761278"><ele>6.6</ele><time>2026-05-22T23:24:01.000Z</time></trkpt>
      <trkpt lat="35.687739" lon="139.76127"><ele>6.6</ele><time>2026-05-22T23:24:02.000Z</time></trkpt>
      <trkpt lat="35.687779" lon="139.761253"><ele>6.6</ele><time>2026-05-22T23:24:03.000Z</time></trkpt>
      <trkpt lat="35.687792" lon="139.761247"><ele>6.4</ele><time>2026-05-22T23:24:04.000Z</time></trkpt>
      <trkpt lat="35.687835" lon="139.761228"><ele>6.4</ele><time>2026-05-22T23:24:05.000Z</time></trkpt>
      <trkpt lat="35.687853" lon="139.761219"><ele>6.4</ele><time>2026-05-22T23:24:06.000Z</time></trkpt>
      <trkpt lat="35.68787" lon="139.761211"><ele>6.4</ele><time>2026-05-22T23:24:07.000Z</time></trkpt>
      <trkpt lat="35.687914" lon="139.761189"><ele>6.4</ele><time>2026-05-22T23:24:08.000Z</time></trkpt>
      <trkpt lat="35.687931" lon="139.761179"><ele>6.4</ele><time>2026-05-22T23:24:09.000Z</time></trkpt>
      <trkpt lat="35.687949" lon="139.76117"><ele>6.4</ele><time>2026-05-22T23:24:10.000Z</time></trkpt>
      <trkpt lat="35.68799" lon="139.761151"><ele>6.4</ele><time>2026-05-22T23:24:11.000Z</time></trkpt>
      <trkpt lat="35.688003" lon="139.761145"><ele>6.4</ele><time>2026-05-22T23:24:12.000Z</time></trkpt>
      <trkpt lat="35.688048" lon="139.761129"><ele>6.6</ele><time>2026-05-22T23:24:13.000Z</time></trkpt>
      <trkpt lat="35.688067" lon="139.761124"><ele>6.6</ele><time>2026-05-22T23:24:14.000Z</time></trkpt>
      <trkpt lat="35.688085" lon="139.761119"><ele>6.6</ele><time>2026-05-22T23:24:15.000Z</time></trkpt>
      <trkpt lat="35.688128" lon="139.761109"><ele>6.6</ele><time>2026-05-22T23:24:16.000Z</time></trkpt>
      <trkpt lat="35.688142" lon="139.761105"><ele>6.6</ele><time>2026-05-22T23:24:17.000Z</time></trkpt>
      <trkpt lat="35.688189" lon="139.761087"><ele>6.6</ele><time>2026-05-22T23:24:18.000Z</time></trkpt>
      <trkpt lat="35.688207" lon="139.761077"><ele>6.6</ele><time>2026-05-22T23:24:19.000Z</time></trkpt>
      <trkpt lat="35.688226" lon="139.761068"><ele>6.6</ele><time>2026-05-22T23:24:20.000Z</time></trkpt>
      <trkpt lat="35.688268" lon="139.761041"><ele>6.6</ele><time>2026-05-22T23:24:21.000Z</time></trkpt>
      <trkpt lat="35.688281" lon="139.761032"><ele>6.6</ele><time>2026-05-22T23:24:22.000Z</time></trkpt>
      <trkpt lat="35.688323" lon="139.761005"><ele>6.6</ele><time>2026-05-22T23:24:23.000Z</time></trkpt>
      <trkpt lat="35.68834" lon="139.760994"><ele>6.6</ele><time>2026-05-22T23:24:24.000Z</time></trkpt>
      <trkpt lat="35.688356" lon="139.760984"><ele>6.6</ele><time>2026-05-22T23:24:25.000Z</time></trkpt>
      <trkpt lat="35.688394" lon="139.760966"><ele>6.6</ele><time>2026-05-22T23:24:26.000Z</time></trkpt>
      <trkpt lat="35.688407" lon="139.76096"><ele>6.4</ele><time>2026-05-22T23:24:27.000Z</time></trkpt>
      <trkpt lat="35.688451" lon="139.760949"><ele>6.4</ele><time>2026-05-22T23:24:28.000Z</time></trkpt>
      <trkpt lat="35.688468" lon="139.760944"><ele>6.4</ele><time>2026-05-22T23:24:29.000Z</time></trkpt>
      <trkpt lat="35.688486" lon="139.76094"><ele>6.4</ele><time>2026-05-22T23:24:30.000Z</time></trkpt>
      <trkpt lat="35.688529" lon="139.760928"><ele>6.4</ele><time>2026-05-22T23:24:31.000Z</time></trkpt>
      <trkpt lat="35.688547" lon="139.760922"><ele>6.4</ele><time>2026-05-22T23:24:32.000Z</time></trkpt>
      <trkpt lat="35.688564" lon="139.760917"><ele>6.4</ele><time>2026-05-22T23:24:33.000Z</time></trkpt>
      <trkpt lat="35.688602" lon="139.760904"><ele>6.4</ele><time>2026-05-22T23:24:34.000Z</time></trkpt>
      <trkpt lat="35.688614" lon="139.760899"><ele>6.2</ele><time>2026-05-22T23:24:35.000Z</time></trkpt>
      <trkpt lat="35.688657" lon="139.760891"><ele>6.2</ele><time>2026-05-22T23:24:36.000Z</time></trkpt>
      <trkpt lat="35.688674" lon="139.760889"><ele>6.2</ele><time>2026-05-22T23:24:37.000Z</time></trkpt>
      <trkpt lat="35.688692" lon="139.760887"><ele>6.2</ele><time>2026-05-22T23:24:38.000Z</time></trkpt>
      <trkpt lat="35.688734" lon="139.760881"><ele>6</ele><time>2026-05-22T23:24:39.000Z</time></trkpt>
      <trkpt lat="35.688747" lon="139.760879"><ele>6</ele><time>2026-05-22T23:24:40.000Z</time></trkpt>
      <trkpt lat="35.688792" lon="139.760869"><ele>6</ele><time>2026-05-22T23:24:41.000Z</time></trkpt>
      <trkpt lat="35.68881" lon="139.760865"><ele>6</ele><time>2026-05-22T23:24:42.000Z</time></trkpt>
      <trkpt lat="35.688827" lon="139.76086"><ele>5.8</ele><time>2026-05-22T23:24:43.000Z</time></trkpt>
      <trkpt lat="35.688867" lon="139.760846"><ele>5.8</ele><time>2026-05-22T23:24:44.000Z</time></trkpt>
      <trkpt lat="35.688881" lon="139.760841"><ele>5.8</ele><time>2026-05-22T23:24:45.000Z</time></trkpt>
      <trkpt lat="35.688928" lon="139.76083"><ele>5.6</ele><time>2026-05-22T23:24:46.000Z</time></trkpt>
      <trkpt lat="35.688946" lon="139.760826"><ele>5.6</ele><time>2026-05-22T23:24:47.000Z</time></trkpt>
      <trkpt lat="35.688965" lon="139.760822"><ele>5.4</ele><time>2026-05-22T23:24:48.000Z</time></trkpt>
      <trkpt lat="35.689005" lon="139.76081"><ele>5.4</ele><time>2026-05-22T23:24:49.000Z</time></trkpt>
      <trkpt lat="35.689018" lon="139.760805"><ele>5.4</ele><time>2026-05-22T23:24:50.000Z</time></trkpt>
      <trkpt lat="35.689061" lon="139.760785"><ele>5.2</ele><time>2026-05-22T23:24:51.000Z</time></trkpt>
      <trkpt lat="35.689079" lon="139.760776"><ele>5.2</ele><time>2026-05-22T23:24:52.000Z</time></trkpt>
      <trkpt lat="35.689096" lon="139.760767"><ele>5.2</ele><time>2026-05-22T23:24:53.000Z</time></trkpt>
      <trkpt lat="35.689136" lon="139.760746"><ele>5.2</ele><time>2026-05-22T23:24:54.000Z</time></trkpt>
      <trkpt lat="35.689149" lon="139.760738"><ele>5</ele><time>2026-05-22T23:24:55.000Z</time></trkpt>
      <trkpt lat="35.689195" lon="139.760711"><ele>5</ele><time>2026-05-22T23:24:56.000Z</time></trkpt>
      <trkpt lat="35.689213" lon="139.7607"><ele>5</ele><time>2026-05-22T23:24:57.000Z</time></trkpt>
      <trkpt lat="35.689231" lon="139.760688"><ele>5</ele><time>2026-05-22T23:24:58.000Z</time></trkpt>
      <trkpt lat="35.689266" lon="139.760651"><ele>5</ele><time>2026-05-22T23:24:59.000Z</time></trkpt>
      <trkpt lat="35.689279" lon="139.760635"><ele>5</ele><time>2026-05-22T23:25:00.000Z</time></trkpt>
      <trkpt lat="35.689291" lon="139.760618"><ele>5</ele><time>2026-05-22T23:25:01.000Z</time></trkpt>
      <trkpt lat="35.689315" lon="139.760577"><ele>5</ele><time>2026-05-22T23:25:02.000Z</time></trkpt>
      <trkpt lat="35.689322" lon="139.760562"><ele>5</ele><time>2026-05-22T23:25:03.000Z</time></trkpt>
      <trkpt lat="35.689342" lon="139.760513"><ele>5</ele><time>2026-05-22T23:25:04.000Z</time></trkpt>
      <trkpt lat="35.689349" lon="139.760493"><ele>5</ele><time>2026-05-22T23:25:05.000Z</time></trkpt>
      <trkpt lat="35.689356" lon="139.760474"><ele>5</ele><time>2026-05-22T23:25:06.000Z</time></trkpt>
      <trkpt lat="35.689371" lon="139.760437"><ele>5</ele><time>2026-05-22T23:25:07.000Z</time></trkpt>
      <trkpt lat="35.689375" lon="139.760426"><ele>5.2</ele><time>2026-05-22T23:25:08.000Z</time></trkpt>
      <trkpt lat="35.68938" lon="139.760389"><ele>5.2</ele><time>2026-05-22T23:25:09.000Z</time></trkpt>
      <trkpt lat="35.689379" lon="139.760374"><ele>5.4</ele><time>2026-05-22T23:25:10.000Z</time></trkpt>
      <trkpt lat="35.689377" lon="139.760358"><ele>5.6</ele><time>2026-05-22T23:25:11.000Z</time></trkpt>
      <trkpt lat="35.689376" lon="139.760343"><ele>5.8</ele><time>2026-05-22T23:25:12.000Z</time></trkpt>
      <trkpt lat="35.689375" lon="139.760327"><ele>6</ele><time>2026-05-22T23:25:13.000Z</time></trkpt>
      <trkpt lat="35.689381" lon="139.760291"><ele>6.2</ele><time>2026-05-22T23:25:14.000Z</time></trkpt>
      <trkpt lat="35.689384" lon="139.760278"><ele>6.4</ele><time>2026-05-22T23:25:15.000Z</time></trkpt>
      <trkpt lat="35.689387" lon="139.760264"><ele>6.6</ele><time>2026-05-22T23:25:16.000Z</time></trkpt>
      <trkpt lat="35.689393" lon="139.760236"><ele>6.8</ele><time>2026-05-22T23:25:17.000Z</time></trkpt>
      <trkpt lat="35.689394" lon="139.760227"><ele>6.8</ele><time>2026-05-22T23:25:18.000Z</time></trkpt>
      <trkpt lat="35.689396" lon="139.760209"><ele>7</ele><time>2026-05-22T23:25:19.000Z</time></trkpt>
      <trkpt lat="35.689398" lon="139.760192"><ele>7.2</ele><time>2026-05-22T23:25:20.000Z</time></trkpt>
      <trkpt lat="35.689401" lon="139.760176"><ele>7.2</ele><time>2026-05-22T23:25:21.000Z</time></trkpt>
      <trkpt lat="35.689404" lon="139.760162"><ele>7.4</ele><time>2026-05-22T23:25:22.000Z</time></trkpt>
      <trkpt lat="35.689407" lon="139.760148"><ele>7.4</ele><time>2026-05-22T23:25:23.000Z</time></trkpt>
      <trkpt lat="35.689411" lon="139.760137"><ele>7.4</ele><time>2026-05-22T23:25:24.000Z</time></trkpt>
      <trkpt lat="35.689415" lon="139.76013"><ele>7.2</ele><time>2026-05-22T23:25:25.000Z</time></trkpt>
      <trkpt lat="35.689419" lon="139.760126"><ele>7.2</ele><time>2026-05-22T23:25:26.000Z</time></trkpt>
      <trkpt lat="35.689421" lon="139.760123"><ele>7</ele><time>2026-05-22T23:25:27.000Z</time></trkpt>
      <trkpt lat="35.689421" lon="139.76012"><ele>6.8</ele><time>2026-05-22T23:25:28.000Z</time></trkpt>
      <trkpt lat="35.68942" lon="139.760114"><ele>6.4</ele><time>2026-05-22T23:25:29.000Z</time></trkpt>
      <trkpt lat="35.689417" lon="139.760106"><ele>6</ele><time>2026-05-22T23:25:30.000Z</time></trkpt>
      <trkpt lat="35.689413" lon="139.760096"><ele>5.6</ele><time>2026-05-22T23:25:31.000Z</time></trkpt>
      <trkpt lat="35.689407" lon="139.760087"><ele>5.2</ele><time>2026-05-22T23:25:32.000Z</time></trkpt>
    </trkseg>
  </trk>
</gpx>
