<?xml version="1.0" encoding="UTF-8"?>
<gpx version="1.1" creator="pull-strava.mjs"
  xmlns="http://www.topografix.com/GPX/1/1"
  xmlns:gpxtpx="http://www.garmin.com/xmlschemas/TrackPointExtension/v1">
  <metadata><name>Night Run</name><time>2026-06-10T04:28:22.000Z</time></metadata>
  <trk><name>Night Run</name><type>running</type>
    <trkseg>
      <trkpt lat="49.289944" lon="-122.785073"><ele>49.6</ele><time>2026-06-10T04:28:22.000Z</time><extensions><gpxtpx:TrackPointExtension><gpxtpx:hr>100</gpxtpx:hr></gpxtpx:TrackPointExtension></extensions></trkpt>
      <trkpt lat="49.2899" lon="-122.78502"><ele>49.2</ele><time>2026-06-10T04:28:23.000Z</time><extensions><gpxtpx:TrackPointExtension><gpxtpx:hr>100</gpxtpx:hr></gpxtpx:TrackPointExtension></extensions></trkpt>
      <trkpt lat="49.289878" lon="-122.784996"><ele>48.6</ele><time>2026-06-10T04:28:24.000Z</time><extensions><gpxtpx:TrackPointExtension><gpxtpx:hr>100</gpxtpx:hr></gpxtpx:TrackPointExtension></extensions></trkpt>
      <trkpt lat="49.289856" lon="-122.784973"><ele>48.2</ele><time>2026-06-10T04:28:25.000Z</time><extensions><gpxtpx:TrackPointExtension><gpxtpx:hr>100</gpxtpx:hr></gpxtpx:TrackPointExtension></extensions></trkpt>
      <trkpt lat="49.289834" lon="-122.784949"><ele>48</ele><time>2026-06-10T04:28:26.000Z</time><extensions><gpxtpx:TrackPointExtension><gpxtpx:hr>100</gpxtpx:hr></gpxtpx:TrackPointExtension></extensions></trkpt>
      <trkpt lat="49.289812" lon="-122.784925"><ele>47.6</ele><time>2026-06-10T04:28:27.000Z</time><extensions><gpxtpx:TrackPointExtension><gpxtpx:hr>100</gpxtpx:hr></gpxtpx:TrackPointExtension></extensions></trkpt>
      <trkpt lat="49.289791" lon="-122.784901"><ele>47.4</ele><time>2026-06-10T04:28:28.000Z</time><extensions><gpxtpx:TrackPointExtension><gpxtpx:hr>100</gpxtpx:hr></gpxtpx:TrackPointExtension></extensions></trkpt>
      <trkpt lat="49.289754" lon="-122.784841"><ele>47.4</ele><time>2026-06-10T04:28:29.000Z</time><extensions><gpxtpx:TrackPointExtension><gpxtpx:hr>100</gpxtpx:hr></gpxtpx:TrackPointExtension></extensions></trkpt>
      <trkpt lat="49.289743" lon="-122.784819"><ele>47.2</ele><time>2026-06-10T04:28:30.000Z</time><extensions><gpxtpx:TrackPointExtension><gpxtpx:hr>100</gpxtpx:hr></gpxtpx:TrackPointExtension></extensions></trkpt>
      <trkpt lat="49.289714" lon="-122.784742"><ele>47.2</ele><time>2026-06-10T04:28:31.000Z</time><extensions><gpxtpx:TrackPointExtension><gpxtpx:hr>100</gpxtpx:hr></gpxtpx:TrackPointExtension></extensions></trkpt>
      <trkpt lat="49.289703" lon="-122.784709"><ele>47.2</ele><time>2026-06-10T04:28:32.000Z</time><extensions><gpxtpx:TrackPointExtension><gpxtpx:hr>100</gpxtpx:hr></gpxtpx:TrackPointExtension></extensions></trkpt>
      <trkpt lat="49.289693" lon="-122.784677"><ele>47.2</ele><time>2026-06-10T04:28:33.000Z</time><extensions><gpxtpx:TrackPointExtension><gpxtpx:hr>100</gpxtpx:hr></gpxtpx:TrackPointExtension></extensions></trkpt>
      <trkpt lat="49.289679" lon="-122.784589"><ele>47.2</ele><time>2026-06-10T04:28:34.000Z</time><extensions><gpxtpx:TrackPointExtension><gpxtpx:hr>100</gpxtpx:hr></gpxtpx:TrackPointExtension></extensions></trkpt>
      <trkpt lat="49.289675" lon="-122.784553"><ele>47.2</ele><time>2026-06-10T04:28:35.000Z</time><extensions><gpxtpx:TrackPointExtension><gpxtpx:hr>100</gpxtpx:hr></gpxtpx:TrackPointExtension></extensions></trkpt>
      <trkpt lat="49.289671" lon="-122.784517"><ele>47.2</ele><time>2026-06-10T04:28:36.000Z</time><extensions><gpxtpx:TrackPointExtension><gpxtpx:hr>100</gpxtpx:hr></gpxtpx:TrackPointExtension></extensions></trkpt>
      <trkpt lat="49.289672" lon="-122.784432"><ele>47.2</ele><time>2026-06-10T04:28:37.000Z</time><extensions><gpxtpx:TrackPointExtension><gpxtpx:hr>100</gpxtpx:hr></gpxtpx:TrackPointExtension></extensions></trkpt>
      <trkpt lat="49.289674" lon="-122.784403"><ele>47.2</ele><time>2026-06-10T04:28:38.000Z</time><extensions><gpxtpx:TrackPointExtension><gpxtpx:hr>100</gpxtpx:hr></gpxtpx:TrackPointExtension></extensions></trkpt>
      <trkpt lat="49.289686" lon="-122.784309"><ele>47.2</ele><time>2026-06-10T04:28:39.000Z</time><extensions><gpxtpx:TrackPointExtension><gpxtpx:hr>100</gpxtpx:hr></gpxtpx:TrackPointExtension></extensions></trkpt>
      <trkpt lat="49.289694" lon="-122.784272"><ele>47.2</ele><time>2026-06-10T04:28:40.000Z</time><extensions><gpxtpx:TrackPointExtension><gpxtpx:hr>100</gpxtpx:hr></gpxtpx:TrackPointExtension></extensions></trkpt>
      <trkpt lat="49.289702" lon="-122.784236"><ele>47.2</ele><time>2026-06-10T04:28:41.000Z</time><extensions><gpxtpx:TrackPointExtension><gpxtpx:hr>100</gpxtpx:hr></gpxtpx:TrackPointExtension></extensions></trkpt>
      <trkpt lat="49.289726" lon="-122.784159"><ele>47.2</ele><time>2026-06-10T04:28:42.000Z</time><extensions><gpxtpx:TrackPointExtension><gpxtpx:hr>100</gpxtpx:hr></gpxtpx:TrackPointExtension></extensions></trkpt>
      <trkpt lat="49.289735" lon="-122.784134"><ele>47.4</ele><time>2026-06-10T04:28:43.000Z</time><extensions><gpxtpx:TrackPointExtension><gpxtpx:hr>100</gpxtpx:hr></gpxtpx:TrackPointExtension></extensions></trkpt>
      <trkpt lat="49.289775" lon="-122.784061"><ele>47.4</ele><time>2026-06-10T04:28:44.000Z</time><extensions><gpxtpx:TrackPointExtension><gpxtpx:hr>100</gpxtpx:hr></gpxtpx:TrackPointExtension></extensions></trkpt>
      <trkpt lat="49.289792" lon="-122.784033"><ele>47.4</ele><time>2026-06-10T04:28:45.000Z</time><extensions><gpxtpx:TrackPointExtension><gpxtpx:hr>100</gpxtpx:hr></gpxtpx:TrackPointExtension></extensions></trkpt>
      <trkpt lat="49.28981" lon="-122.784006"><ele>47.4</ele><time>2026-06-10T04:28:46.000Z</time><extensions><gpxtpx:TrackPointExtension><gpxtpx:hr>100</gpxtpx:hr></gpxtpx:TrackPointExtension></extensions></trkpt>
      <trkpt lat="49.289856" lon="-122.783955"><ele>47.4</ele><time>2026-06-10T04:28:47.000Z</time><extensions><gpxtpx:TrackPointExtension><gpxtpx:hr>100</gpxtpx:hr></gpxtpx:TrackPointExtension></extensions></trkpt>
      <trkpt lat="49.289872" lon="-122.783939"><ele>47.6</ele><time>2026-06-10T04:28:48.000Z</time><extensions><gpxtpx:TrackPointExtension><gpxtpx:hr>100</gpxtpx:hr></gpxtpx:TrackPointExtension></extensions></trkpt>
      <trkpt lat="49.289932" lon="-122.783901"><ele>47.6</ele><time>2026-06-10T04:28:49.000Z</time><extensions><gpxtpx:TrackPointExtension><gpxtpx:hr>100</gpxtpx:hr></gpxtpx:TrackPointExtension></extensions></trkpt>
      <trkpt lat="49.289956" lon="-122.78389"><ele>47.6</ele><time>2026-06-10T04:28:50.000Z</time><extensions><gpxtpx:TrackPointExtension><gpxtpx:hr>100</gpxtpx:hr></gpxtpx:TrackPointExtension></extensions></trkpt>
      <trkpt lat="49.289981" lon="-122.783878"><ele>47.8</ele><time>2026-06-10T04:28:51.000Z</time><extensions><gpxtpx:TrackPointExtension><gpxtpx:hr>100</gpxtpx:hr></gpxtpx:TrackPointExtension></extensions></trkpt>
      <trkpt lat="49.29004" lon="-122.783866"><ele>47.8</ele><time>2026-06-10T04:28:52.000Z</time><extensions><gpxtpx:TrackPointExtension><gpxtpx:hr>100</gpxtpx:hr></gpxtpx:TrackPointExtension></extensions></trkpt>
      <trkpt lat="49.290061" lon="-122.783864"><ele>47.8</ele><time>2026-06-10T04:28:53.000Z</time><extensions><gpxtpx:TrackPointExtension><gpxtpx:hr>100</gpxtpx:hr></gpxtpx:TrackPointExtension></extensions></trkpt>
      <trkpt lat="49.290101" lon="-122.783861"><ele>47.8</ele><time>2026-06-10T04:28:54.000Z</time><extensions><gpxtpx:TrackPointExtension><gpxtpx:hr>136</gpxtpx:hr></gpxtpx:TrackPointExtension></extensions></trkpt>
      <trkpt lat="49.290143" lon="-122.783861"><ele>47.8</ele><time>2026-06-10T04:28:56.000Z</time><extensions><gpxtpx:TrackPointExtension><gpxtpx:hr>136</gpxtpx:hr></gpxtpx:TrackPointExtension></extensions></trkpt>
      <trkpt lat="49.290202" lon="-122.783861"><ele>47.8</ele><time>2026-06-10T04:28:57.000Z</time><extensions><gpxtpx:TrackPointExtension><gpxtpx:hr>136</gpxtpx:hr></gpxtpx:TrackPointExtension></extensions></trkpt>
      <trkpt lat="49.290221" lon="-122.783861"><ele>47.8</ele><time>2026-06-10T04:28:58.000Z</time><extensions><gpxtpx:TrackPointExtension><gpxtpx:hr>136</gpxtpx:hr></gpxtpx:TrackPointExtension></extensions></trkpt>
      <trkpt lat="49.29028" lon="-122.783861"><ele>47.8</ele><time>2026-06-10T04:28:59.000Z</time><extensions><gpxtpx:TrackPointExtension><gpxtpx:hr>136</gpxtpx:hr></gpxtpx:TrackPointExtension></extensions></trkpt>
      <trkpt lat="49.290304" lon="-122.783861"><ele>47.8</ele><time>2026-06-10T04:29:00.000Z</time><extensions><gpxtpx:TrackPointExtension><gpxtpx:hr>136</gpxtpx:hr></gpxtpx:TrackPointExtension></extensions></trkpt>
      <trkpt lat="49.290327" lon="-122.783861"><ele>47.8</ele><time>2026-06-10T04:29:01.000Z</time><extensions><gpxtpx:TrackPointExtension><gpxtpx:hr>136</gpxtpx:hr></gpxtpx:TrackPointExtension></extensions></trkpt>
      <trkpt lat="49.290386" lon="-122.783861"><ele>47.6</ele><time>2026-06-10T04:29:02.000Z</time><extensions><gpxtpx:TrackPointExtension><gpxtpx:hr>136</gpxtpx:hr></gpxtpx:TrackPointExtension></extensions></trkpt>
      <trkpt lat="49.290411" lon="-122.783861"><ele>47.6</ele><time>2026-06-10T04:29:03.000Z</time><extensions><gpxtpx:TrackPointExtension><gpxtpx:hr>136</gpxtpx:hr></gpxtpx:TrackPointExtension></extensions></trkpt>
      <trkpt lat="49.290435" lon="-122.783861"><ele>47.6</ele><time>2026-06-10T04:29:04.000Z</time><extensions><gpxtpx:TrackPointExtension><gpxtpx:hr>136</gpxtpx:hr></gpxtpx:TrackPointExtension></extensions></trkpt>
      <trkpt lat="49.290487" lon="-122.78386"><ele>47.6</ele><time>2026-06-10T04:29:05.000Z</time><extensions><gpxtpx:TrackPointExtension><gpxtpx:hr>136</gpxtpx:hr></gpxtpx:TrackPointExtension></extensions></trkpt>
      <trkpt lat="49.290504" lon="-122.78386"><ele>47.4</ele><time>2026-06-10T04:29:06.000Z</time><extensions><gpxtpx:TrackPointExtension><gpxtpx:hr>136</gpxtpx:hr></gpxtpx:TrackPointExtension></extensions></trkpt>
      <trkpt lat="49.290564" lon="-122.78386"><ele>47.4</ele><time>2026-06-10T04:29:07.000Z</time><extensions><gpxtpx:TrackPointExtension><gpxtpx:hr>136</gpxtpx:hr></gpxtpx:TrackPointExtension></extensions></trkpt>
      <trkpt lat="49.290588" lon="-122.783859"><ele>47.4</ele><time>2026-06-10T04:29:08.000Z</time><extensions><gpxtpx:TrackPointExtension><gpxtpx:hr>136</gpxtpx:hr></gpxtpx:TrackPointExtension></extensions></trkpt>
      <trkpt lat="49.290613" lon="-122.783859"><ele>47.4</ele><time>2026-06-10T04:29:09.000Z</time><extensions><gpxtpx:TrackPointExtension><gpxtpx:hr>136</gpxtpx:hr></gpxtpx:TrackPointExtension></extensions></trkpt>
      <trkpt lat="49.290667" lon="-122.783859"><ele>47.4</ele><time>2026-06-10T04:29:10.000Z</time><extensions><gpxtpx:TrackPointExtension><gpxtpx:hr>136</gpxtpx:hr></gpxtpx:TrackPointExtension></extensions></trkpt>
      <trkpt lat="49.290685" lon="-122.78386"><ele>47.4</ele><time>2026-06-10T04:29:11.000Z</time><extensions><gpxtpx:TrackPointExtension><gpxtpx:hr>136</gpxtpx:hr></gpxtpx:TrackPointExtension></extensions></trkpt>
      <trkpt lat="49.290744" lon="-122.783871"><ele>47.4</ele><time>2026-06-10T04:29:12.000Z</time><extensions><gpxtpx:TrackPointExtension><gpxtpx:hr>136</gpxtpx:hr></gpxtpx:TrackPointExtension></extensions></trkpt>
      <trkpt lat="49.290767" lon="-122.783878"><ele>47.4</ele><time>2026-06-10T04:29:13.000Z</time><extensions><gpxtpx:TrackPointExtension><gpxtpx:hr>136</gpxtpx:hr></gpxtpx:TrackPointExtension></extensions></trkpt>
      <trkpt lat="49.290791" lon="-122.783886"><ele>47.2</ele><time>2026-06-10T04:29:14.000Z</time><extensions><gpxtpx:TrackPointExtension><gpxtpx:hr>136</gpxtpx:hr></gpxtpx:TrackPointExtension></extensions></trkpt>
      <trkpt lat="49.290844" lon="-122.783912"><ele>47.2</ele><time>2026-06-10T04:29:15.000Z</time><extensions><gpxtpx:TrackPointExtension><gpxtpx:hr>136</gpxtpx:hr></gpxtpx:TrackPointExtension></extensions></trkpt>
      <trkpt lat="49.290861" lon="-122.783924"><ele>47.2</ele><time>2026-06-10T04:29:16.000Z</time><extensions><gpxtpx:TrackPointExtension><gpxtpx:hr>136</gpxtpx:hr></gpxtpx:TrackPointExtension></extensions></trkpt>
      <trkpt lat="49.290913" lon="-122.783973"><ele>47.2</ele><time>2026-06-10T04:29:17.000Z</time><extensions><gpxtpx:TrackPointExtension><gpxtpx:hr>136</gpxtpx:hr></gpxtpx:TrackPointExtension></extensions></trkpt>
      <trkpt lat="49.290933" lon="-122.783994"><ele>47.2</ele><time>2026-06-10T04:29:18.000Z</time><extensions><gpxtpx:TrackPointExtension><gpxtpx:hr>136</gpxtpx:hr></gpxtpx:TrackPointExtension></extensions></trkpt>
      <trkpt lat="49.290952" lon="-122.784016"><ele>47.2</ele><time>2026-06-10T04:29:19.000Z</time><extensions><gpxtpx:TrackPointExtension><gpxtpx:hr>136</gpxtpx:hr></gpxtpx:TrackPointExtension></extensions></trkpt>
      <trkpt lat="49.290988" lon="-122.784072"><ele>47.2</ele><time>2026-06-10T04:29:20.000Z</time><extensions><gpxtpx:TrackPointExtension><gpxtpx:hr>136</gpxtpx:hr></gpxtpx:TrackPointExtension></extensions></trkpt>
      <trkpt lat="49.290999" lon="-122.784092"><ele>47.4</ele><time>2026-06-10T04:29:21.000Z</time><extensions><gpxtpx:TrackPointExtension><gpxtpx:hr>136</gpxtpx:hr></gpxtpx:TrackPointExtension></extensions></trkpt>
      <trkpt lat="49.29103" lon="-122.784167"><ele>47.4</ele><time>2026-06-10T04:29:22.000Z</time><extensions><gpxtpx:TrackPointExtension><gpxtpx:hr>136</gpxtpx:hr></gpxtpx:TrackPointExtension></extensions></trkpt>
      <trkpt lat="49.291041" lon="-122.784198"><ele>47.6</ele><time>2026-06-10T04:29:23.000Z</time><extensions><gpxtpx:TrackPointExtension><gpxtpx:hr>136</gpxtpx:hr></gpxtpx:TrackPointExtension></extensions></trkpt>
      <trkpt lat="49.291052" lon="-122.784229"><ele>47.6</ele><time>2026-06-10T04:29:24.000Z</time><extensions><gpxtpx:TrackPointExtension><gpxtpx:hr>136</gpxtpx:hr></gpxtpx:TrackPointExtension></extensions></trkpt>
      <trkpt lat="49.291068" lon="-122.784305"><ele>47.8</ele><time>2026-06-10T04:29:25.000Z</time><extensions><gpxtpx:TrackPointExtension><gpxtpx:hr>136</gpxtpx:hr></gpxtpx:TrackPointExtension></extensions></trkpt>
      <trkpt lat="49.291073" lon="-122.784335"><ele>47.8</ele><time>2026-06-10T04:29:26.000Z</time><extensions><gpxtpx:TrackPointExtension><gpxtpx:hr>136</gpxtpx:hr></gpxtpx:TrackPointExtension></extensions></trkpt>
      <trkpt lat="49.291078" lon="-122.784366"><ele>48</ele><time>2026-06-10T04:29:27.000Z</time><extensions><gpxtpx:TrackPointExtension><gpxtpx:hr>136</gpxtpx:hr></gpxtpx:TrackPointExtension></extensions></trkpt>
      <trkpt lat="49.291082" lon="-122.784442"><ele>48</ele><time>2026-06-10T04:29:28.000Z</time><extensions><gpxtpx:TrackPointExtension><gpxtpx:hr>136</gpxtpx:hr></gpxtpx:TrackPointExtension></extensions></trkpt>
      <trkpt lat="49.291083" lon="-122.784468"><ele>48.2</ele><time>2026-06-10T04:29:29.000Z</time><extensions><gpxtpx:TrackPointExtension><gpxtpx:hr>136</gpxtpx:hr></gpxtpx:TrackPointExtension></extensions></trkpt>
      <trkpt lat="49.291077" lon="-122.784554"><ele>48.2</ele><time>2026-06-10T04:29:30.000Z</time><extensions><gpxtpx:TrackPointExtension><gpxtpx:hr>136</gpxtpx:hr></gpxtpx:TrackPointExtension></extensions></trkpt>
      <trkpt lat="49.291074" lon="-122.784587"><ele>48.2</ele><time>2026-06-10T04:29:31.000Z</time><extensions><gpxtpx:TrackPointExtension><gpxtpx:hr>136</gpxtpx:hr></gpxtpx:TrackPointExtension></extensions></trkpt>
      <trkpt lat="49.29107" lon="-122.784621"><ele>48.2</ele><time>2026-06-10T04:29:32.000Z</time><extensions><gpxtpx:TrackPointExtension><gpxtpx:hr>136</gpxtpx:hr></gpxtpx:TrackPointExtension></extensions></trkpt>
      <trkpt lat="49.291055" lon="-122.784692"><ele>48</ele><time>2026-06-10T04:29:33.000Z</time><extensions><gpxtpx:TrackPointExtension><gpxtpx:hr>136</gpxtpx:hr></gpxtpx:TrackPointExtension></extensions></trkpt>
      <trkpt lat="49.291048" lon="-122.784715"><ele>48</ele><time>2026-06-10T04:29:34.000Z</time><extensions><gpxtpx:TrackPointExtension><gpxtpx:hr>136</gpxtpx:hr></gpxtpx:TrackPointExtension></extensions></trkpt>
      <trkpt lat="49.29102" lon="-122.784791"><ele>47.8</ele><time>2026-06-10T04:29:35.000Z</time><extensions><gpxtpx:TrackPointExtension><gpxtpx:hr>136</gpxtpx:hr></gpxtpx:TrackPointExtension></extensions></trkpt>
      <trkpt lat="49.291007" lon="-122.784819"><ele>47.6</ele><time>2026-06-10T04:29:36.000Z</time><extensions><gpxtpx:TrackPointExtension><gpxtpx:hr>136</gpxtpx:hr></gpxtpx:TrackPointExtension></extensions></trkpt>
      <trkpt lat="49.290994" lon="-122.784848"><ele>47.4</ele><time>2026-06-10T04:29:37.000Z</time><extensions><gpxtpx:TrackPointExtension><gpxtpx:hr>136</gpxtpx:hr></gpxtpx:TrackPointExtension></extensions></trkpt>
      <trkpt lat="49.290957" lon="-122.784906"><ele>47.2</ele><time>2026-06-10T04:29:38.000Z</time><extensions><gpxtpx:TrackPointExtension><gpxtpx:hr>136</gpxtpx:hr></gpxtpx:TrackPointExtension></extensions></trkpt>
      <trkpt lat="49.290944" lon="-122.784925"><ele>47</ele><time>2026-06-10T04:29:39.000Z</time><extensions><gpxtpx:TrackPointExtension><gpxtpx:hr>136</gpxtpx:hr></gpxtpx:TrackPointExtension></extensions></trkpt>
      <trkpt lat="49.290894" lon="-122.78498"><ele>46.8</ele><time>2026-06-10T04:29:40.000Z</time><extensions><gpxtpx:TrackPointExtension><gpxtpx:hr>136</gpxtpx:hr></gpxtpx:TrackPointExtension></extensions></trkpt>
      <trkpt lat="49.290873" lon="-122.784999"><ele>46.6</ele><time>2026-06-10T04:29:41.000Z</time><extensions><gpxtpx:TrackPointExtension><gpxtpx:hr>136</gpxtpx:hr></gpxtpx:TrackPointExtension></extensions></trkpt>
      <trkpt lat="49.290851" lon="-122.785018"><ele>46.4</ele><time>2026-06-10T04:29:42.000Z</time><extensions><gpxtpx:TrackPointExtension><gpxtpx:hr>136</gpxtpx:hr></gpxtpx:TrackPointExtension></extensions></trkpt>
      <trkpt lat="49.290799" lon="-122.785047"><ele>46.4</ele><time>2026-06-10T04:29:43.000Z</time><extensions><gpxtpx:TrackPointExtension><gpxtpx:hr>136</gpxtpx:hr></gpxtpx:TrackPointExtension></extensions></trkpt>
      <trkpt lat="49.290782" lon="-122.785055"><ele>46.2</ele><time>2026-06-10T04:29:44.000Z</time><extensions><gpxtpx:TrackPointExtension><gpxtpx:hr>136</gpxtpx:hr></gpxtpx:TrackPointExtension></extensions></trkpt>
      <trkpt lat="49.290727" lon="-122.785069"><ele>46.2</ele><time>2026-06-10T04:29:45.000Z</time><extensions><gpxtpx:TrackPointExtension><gpxtpx:hr>136</gpxtpx:hr></gpxtpx:TrackPointExtension></extensions></trkpt>
      <trkpt lat="49.290705" lon="-122.785071"><ele>46</ele><time>2026-06-10T04:29:46.000Z</time><extensions><gpxtpx:TrackPointExtension><gpxtpx:hr>136</gpxtpx:hr></gpxtpx:TrackPointExtension></extensions></trkpt>
      <trkpt lat="49.290683" lon="-122.785074"><ele>46</ele><time>2026-06-10T04:29:47.000Z</time><extensions><gpxtpx:TrackPointExtension><gpxtpx:hr>136</gpxtpx:hr></gpxtpx:TrackPointExtension></extensions></trkpt>
      <trkpt lat="49.290634" lon="-122.785075"><ele>46</ele><time>2026-06-10T04:29:48.000Z</time><extensions><gpxtpx:TrackPointExtension><gpxtpx:hr>136</gpxtpx:hr></gpxtpx:TrackPointExtension></extensions></trkpt>
      <trkpt lat="49.290618" lon="-122.785075"><ele>46</ele><time>2026-06-10T04:29:49.000Z</time><extensions><gpxtpx:TrackPointExtension><gpxtpx:hr>136</gpxtpx:hr></gpxtpx:TrackPointExtension></extensions></trkpt>
      <trkpt lat="49.290566" lon="-122.785075"><ele>46</ele><time>2026-06-10T04:29:50.000Z</time><extensions><gpxtpx:TrackPointExtension><gpxtpx:hr>136</gpxtpx:hr></gpxtpx:TrackPointExtension></extensions></trkpt>
      <trkpt lat="49.290545" lon="-122.785075"><ele>46</ele><time>2026-06-10T04:29:51.000Z</time><extensions><gpxtpx:TrackPointExtension><gpxtpx:hr>136</gpxtpx:hr></gpxtpx:TrackPointExtension></extensions></trkpt>
      <trkpt lat="49.290524" lon="-122.785075"><ele>46</ele><time>2026-06-10T04:29:52.000Z</time><extensions><gpxtpx:TrackPointExtension><gpxtpx:hr>136</gpxtpx:hr></gpxtpx:TrackPointExtension></extensions></trkpt>
      <trkpt lat="49.290471" lon="-122.785075"><ele>46.2</ele><time>2026-06-10T04:29:53.000Z</time><extensions><gpxtpx:TrackPointExtension><gpxtpx:hr>136</gpxtpx:hr></gpxtpx:TrackPointExtension></extensions></trkpt>
      <trkpt lat="49.290449" lon="-122.785076"><ele>46.2</ele><time>2026-06-10T04:29:54.000Z</time><extensions><gpxtpx:TrackPointExtension><gpxtpx:hr>136</gpxtpx:hr></gpxtpx:TrackPointExtension></extensions></trkpt>
      <trkpt lat="49.290428" lon="-122.785076"><ele>46.2</ele><time>2026-06-10T04:29:55.000Z</time><extensions><gpxtpx:TrackPointExtension><gpxtpx:hr>136</gpxtpx:hr></gpxtpx:TrackPointExtension></extensions></trkpt>
      <trkpt lat="49.290378" lon="-122.785076"><ele>46.2</ele><time>2026-06-10T04:29:56.000Z</time><extensions><gpxtpx:TrackPointExtension><gpxtpx:hr>136</gpxtpx:hr></gpxtpx:TrackPointExtension></extensions></trkpt>
      <trkpt lat="49.290361" lon="-122.785076"><ele>46.2</ele><time>2026-06-10T04:29:57.000Z</time><extensions><gpxtpx:TrackPointExtension><gpxtpx:hr>136</gpxtpx:hr></gpxtpx:TrackPointExtension></extensions></trkpt>
      <trkpt lat="49.290303" lon="-122.785076"><ele>46.2</ele><time>2026-06-10T04:29:58.000Z</time><extensions><gpxtpx:TrackPointExtension><gpxtpx:hr>136</gpxtpx:hr></gpxtpx:TrackPointExtension></extensions></trkpt>
      <trkpt lat="49.290279" lon="-122.785077"><ele>46.2</ele><time>2026-06-10T04:29:59.000Z</time><extensions><gpxtpx:TrackPointExtension><gpxtpx:hr>136</gpxtpx:hr></gpxtpx:TrackPointExtension></extensions></trkpt>
      <trkpt lat="49.290256" lon="-122.785077"><ele>46.2</ele><time>2026-06-10T04:30:00.000Z</time><extensions><gpxtpx:TrackPointExtension><gpxtpx:hr>136</gpxtpx:hr></gpxtpx:TrackPointExtension></extensions></trkpt>
      <trkpt lat="49.290207" lon="-122.785077"><ele>46.2</ele><time>2026-06-10T04:30:01.000Z</time><extensions><gpxtpx:TrackPointExtension><gpxtpx:hr>136</gpxtpx:hr></gpxtpx:TrackPointExtension></extensions></trkpt>
      <trkpt lat="49.290192" lon="-122.785077"><ele>46.2</ele><time>2026-06-10T04:30:02.000Z</time><extensions><gpxtpx:TrackPointExtension><gpxtpx:hr>136</gpxtpx:hr></gpxtpx:TrackPointExtension></extensions></trkpt>
      <trkpt lat="49.290146" lon="-122.785077"><ele>46.2</ele><time>2026-06-10T04:30:03.000Z</time><extensions><gpxtpx:TrackPointExtension><gpxtpx:hr>136</gpxtpx:hr></gpxtpx:TrackPointExtension></extensions></trkpt>
      <trkpt lat="49.290128" lon="-122.785078"><ele>46.2</ele><time>2026-06-10T04:30:04.000Z</time><extensions><gpxtpx:TrackPointExtension><gpxtpx:hr>136</gpxtpx:hr></gpxtpx:TrackPointExtension></extensions></trkpt>
      <trkpt lat="49.290111" lon="-122.785078"><ele>46.2</ele><time>2026-06-10T04:30:05.000Z</time><extensions><gpxtpx:TrackPointExtension><gpxtpx:hr>136</gpxtpx:hr></gpxtpx:TrackPointExtension></extensions></trkpt>
      <trkpt lat="49.290079" lon="-122.785078"><ele>46.2</ele><time>2026-06-10T04:30:06.000Z</time><extensions><gpxtpx:TrackPointExtension><gpxtpx:hr>136</gpxtpx:hr></gpxtpx:TrackPointExtension></extensions></trkpt>
      <trkpt lat="49.29007" lon="-122.785078"><ele>46</ele><time>2026-06-10T04:30:07.000Z</time><extensions><gpxtpx:TrackPointExtension><gpxtpx:hr>136</gpxtpx:hr></gpxtpx:TrackPointExtension></extensions></trkpt>
      <trkpt lat="49.290056" lon="-122.785077"><ele>46</ele><time>2026-06-10T04:30:08.000Z</time><extensions><gpxtpx:TrackPointExtension><gpxtpx:hr>136</gpxtpx:hr></gpxtpx:TrackPointExtension></extensions></trkpt>
      <trkpt lat="49.290047" lon="-122.785077"><ele>45.8</ele><time>2026-06-10T04:30:09.000Z</time><extensions><gpxtpx:TrackPointExtension><gpxtpx:hr>136</gpxtpx:hr></gpxtpx:TrackPointExtension></extensions></trkpt>
      <trkpt lat="49.29004" lon="-122.785077"><ele>45.6</ele><time>2026-06-10T04:30:10.000Z</time><extensions><gpxtpx:TrackPointExtension><gpxtpx:hr>136</gpxtpx:hr></gpxtpx:TrackPointExtension></extensions></trkpt>
      <trkpt lat="49.290035" lon="-122.785076"><ele>45.4</ele><time>2026-06-10T04:30:11.000Z</time><extensions><gpxtpx:TrackPointExtension><gpxtpx:hr>136</gpxtpx:hr></gpxtpx:TrackPointExtension></extensions></trkpt>
      <trkpt lat="49.290029" lon="-122.785075"><ele>45.2</ele><time>2026-06-10T04:30:12.000Z</time><extensions><gpxtpx:TrackPointExtension><gpxtpx:hr>136</gpxtpx:hr></gpxtpx:TrackPointExtension></extensions></trkpt>
      <trkpt lat="49.29002" lon="-122.785073"><ele>44.8</ele><time>2026-06-10T04:30:13.000Z</time><extensions><gpxtpx:TrackPointExtension><gpxtpx:hr>164</gpxtpx:hr></gpxtpx:TrackPointExtension></extensions></trkpt>
      <trkpt lat="49.290006" lon="-122.78507"><ele>44.4</ele><time>2026-06-10T04:30:14.000Z</time><extensions><gpxtpx:TrackPointExtension><gpxtpx:hr>164</gpxtpx:hr></gpxtpx:TrackPointExtension></extensions></trkpt>
    </trkseg>
  </trk>
</gpx>
